GLOBALSTAR M057         
1 25943U 99058A   24213.88688888 -.00000070  00000+0  20550-3 0  9990
2 25943  51.9964 177.1885 0002346  68.2646 291.8453 12.24790720127683
GLOBALSTAR M059         
1 25944U 99058B   24213.90917007 -.00000128  00000+0 -51664-3 0  9997
2 25944  52.0046 353.6180 0000963  82.1651  36.5089 11.99965773124342
GLOBALSTAR M056         
1 25945U 99058C   24213.87089507 -.00000123  00000+0 -41375-3 0  9992
2 25945  51.9987   3.9046 0000414 175.7052 351.6711 12.04774051124017
GLOBALSTAR M031         
1 25946U 99058D   24214.16787336 -.00000091  00000+0 -81270-5 0  9995
2 25946  51.9957 274.5813 0001451 232.5194 172.7937 12.16012070125858
GLOBALSTAR M039         
1 25961U 99062A   24213.87780432 -.00000073  00000+0  16902-3 0  9991
2 25961  51.9831 164.2943 0003046   0.5490 359.5379 12.62298376139765
GLOBALSTAR M034         
1 25962U 99062B   24213.94371304 -.00000100  00000+0 -30891-3 0  9999
2 25962  51.9867 123.8246 0013594 154.6923 285.8823 11.79429612100605
GLOBALSTAR M029         
1 25963U 99062C   24213.82547637 -.00000044  00000+0  52781-3 0  9999
2 25963  51.9773 242.1574 0002749 206.9653 324.3011 11.99881164130665
GLOBALSTAR M061         
1 25964U 99062D   24213.74000877 -.00000050  00000+0  49089-3 0  9995
2 25964  51.9808 304.1443 0006382  86.8773  32.0750 11.76763069 83459
